CCSDS_OMM_VERS = 2.0
CREATION_DATE  = 
ORIGINATOR     = 

OBJECT_NAME    = UNKNOWN
OBJECT_ID      = 
CENTER_NAME    = EARTH
REF_FRAME      = TEME
TIME_SYSTEM    = UTC
MEAN_ELEMENT_THEORY = SGP/SGP4

EPOCH          = 2025-12-22T02:44:10.899456
MEAN_MOTION    = 9.25018808
ECCENTRICITY   = .2831853
INCLINATION    = 62.4771
RA_OF_ASC_NODE = 351.1815
ARG_OF_PERICENTER = 101.5608
MEAN_ANOMALY   = 291.2882

EPHEMERIS_TYPE = 0
CLASSIFICATION_TYPE = U
NORAD_CAT_ID   = 89251
ELEMENT_SET_NO = 999
REV_AT_EPOCH   = 37405
BSTAR          = .87384E-2
MEAN_MOTION_DOT = .14902E-3
MEAN_MOTION_DDOT = 0

CCSDS_OMM_VERS = 2.0
CREATION_DATE  = 
ORIGINATOR     = 

OBJECT_NAME    = UNKNOWN
OBJECT_ID      = 
CENTER_NAME    = EARTH
REF_FRAME      = TEME
TIME_SYSTEM    = UTC
MEAN_ELEMENT_THEORY = SGP/SGP4

EPOCH          = 2025-12-15T06:00:50.035104
MEAN_MOTION    = 14.43119586
ECCENTRICITY   = .0013456
INCLINATION    = 98.1538
RA_OF_ASC_NODE = 343.5564
ARG_OF_PERICENTER = 146.8272
MEAN_ANOMALY   = 213.3765

EPHEMERIS_TYPE = 0
CLASSIFICATION_TYPE = U
NORAD_CAT_ID   = 89261
ELEMENT_SET_NO = 999
REV_AT_EPOCH   = 53417
BSTAR          = .30208E-3
MEAN_MOTION_DOT = .974E-5
MEAN_MOTION_DDOT = 0

CCSDS_OMM_VERS = 2.0
CREATION_DATE  = 
ORIGINATOR     = 

OBJECT_NAME    = UNKNOWN
OBJECT_ID      = 
CENTER_NAME    = EARTH
REF_FRAME      = TEME
TIME_SYSTEM    = UTC
MEAN_ELEMENT_THEORY = SGP/SGP4

EPOCH          = 2025-12-21T14:09:55.808064
MEAN_MOTION    = 9.03754236
ECCENTRICITY   = .2851541
INCLINATION    = 84.3094
RA_OF_ASC_NODE = 101.6530
ARG_OF_PERICENTER = 334.1917
MEAN_ANOMALY   = 23.3828

EPHEMERIS_TYPE = 0
CLASSIFICATION_TYPE = U
NORAD_CAT_ID   = 89304
ELEMENT_SET_NO = 999
REV_AT_EPOCH   = 43920
BSTAR          = .23076E-1
MEAN_MOTION_DOT = .19323E-3
MEAN_MOTION_DDOT = 0

CCSDS_OMM_VERS = 2.0
CREATION_DATE  = 
ORIGINATOR     = 

OBJECT_NAME    = UNKNOWN
OBJECT_ID      = 
CENTER_NAME    = EARTH
REF_FRAME      = TEME
TIME_SYSTEM    = UTC
MEAN_ELEMENT_THEORY = SGP/SGP4

EPOCH          = 2025-12-21T19:02:01.993632
MEAN_MOTION    = 12.96247793
ECCENTRICITY   = .0028774
INCLINATION    = 90.2436
RA_OF_ASC_NODE = 7.5526
ARG_OF_PERICENTER = 241.1062
MEAN_ANOMALY   = 118.7171

EPHEMERIS_TYPE = 0
CLASSIFICATION_TYPE = U
NORAD_CAT_ID   = 89349
ELEMENT_SET_NO = 999
REV_AT_EPOCH   = 47992
BSTAR          = .16699E-2
MEAN_MOTION_DOT = .484E-5
MEAN_MOTION_DDOT = 0

CCSDS_OMM_VERS = 2.0
CREATION_DATE  = 
ORIGINATOR     = 

OBJECT_NAME    = UNKNOWN
OBJECT_ID      = 
CENTER_NAME    = EARTH
REF_FRAME      = TEME
TIME_SYSTEM    = UTC
MEAN_ELEMENT_THEORY = SGP/SGP4

EPOCH          = 2025-12-22T11:26:57.919200
MEAN_MOTION    = 13.62788546
ECCENTRICITY   = .0041624
INCLINATION    = 100.4815
RA_OF_ASC_NODE = 12.4689
ARG_OF_PERICENTER = 106.3375
MEAN_ANOMALY   = 254.2347

EPHEMERIS_TYPE = 0
CLASSIFICATION_TYPE = U
NORAD_CAT_ID   = 89379
ELEMENT_SET_NO = 999
REV_AT_EPOCH   = 58210
BSTAR          = .57577E-2
MEAN_MOTION_DOT = .4472E-4
MEAN_MOTION_DDOT = 0

CCSDS_OMM_VERS = 2.0
CREATION_DATE  = 
ORIGINATOR     = 

OBJECT_NAME    = UNKNOWN
OBJECT_ID      = 
CENTER_NAME    = EARTH
REF_FRAME      = TEME
TIME_SYSTEM    = UTC
MEAN_ELEMENT_THEORY = SGP/SGP4

EPOCH          = 2025-12-15T21:25:19.265376
MEAN_MOTION    = 12.01514395
ECCENTRICITY   = .0222398
INCLINATION    = 102.3666
RA_OF_ASC_NODE = 317.9549
ARG_OF_PERICENTER = 119.5893
MEAN_ANOMALY   = 304.5400

EPHEMERIS_TYPE = 0
CLASSIFICATION_TYPE = U
NORAD_CAT_ID   = 89395
ELEMENT_SET_NO = 999
REV_AT_EPOCH   = 52512
BSTAR          = -.20254E-2
MEAN_MOTION_DOT = -.22E-5
MEAN_MOTION_DDOT = 0

CCSDS_OMM_VERS = 2.0
CREATION_DATE  = 
ORIGINATOR     = 

OBJECT_NAME    = UNKNOWN
OBJECT_ID      = 
CENTER_NAME    = EARTH
REF_FRAME      = TEME
TIME_SYSTEM    = UTC
MEAN_ELEMENT_THEORY = SGP/SGP4

EPOCH          = 2025-12-21T00:45:33.791904
MEAN_MOTION    = 12.98758977
ECCENTRICITY   = .0028786
INCLINATION    = 90.2448
RA_OF_ASC_NODE = 5.9911
ARG_OF_PERICENTER = 194.5966
MEAN_ANOMALY   = 192.0628

EPHEMERIS_TYPE = 0
CLASSIFICATION_TYPE = U
NORAD_CAT_ID   = 89403
ELEMENT_SET_NO = 999
REV_AT_EPOCH   = 47890
BSTAR          = .33642E-2
MEAN_MOTION_DOT = .1003E-4
MEAN_MOTION_DDOT = 0

CCSDS_OMM_VERS = 2.0
CREATION_DATE  = 
ORIGINATOR     = 

OBJECT_NAME    = UNKNOWN
OBJECT_ID      = 
CENTER_NAME    = EARTH
REF_FRAME      = TEME
TIME_SYSTEM    = UTC
MEAN_ELEMENT_THEORY = SGP/SGP4

EPOCH          = 2025-12-19T18:43:12.806112
MEAN_MOTION    = 9.14944919
ECCENTRICITY   = .2857331
INCLINATION    = 84.0421
RA_OF_ASC_NODE = 152.7022
ARG_OF_PERICENTER = 17.4824
MEAN_ANOMALY   = 350.6866

EPHEMERIS_TYPE = 0
CLASSIFICATION_TYPE = U
NORAD_CAT_ID   = 89484
ELEMENT_SET_NO = 999
REV_AT_EPOCH   = 35608
BSTAR          = .14854E-1
MEAN_MOTION_DOT = .2019E-3
MEAN_MOTION_DDOT = 0

CCSDS_OMM_VERS = 2.0
CREATION_DATE  = 
ORIGINATOR     = 

OBJECT_NAME    = UNKNOWN
OBJECT_ID      = 
CENTER_NAME    = EARTH
REF_FRAME      = TEME
TIME_SYSTEM    = UTC
MEAN_ELEMENT_THEORY = SGP/SGP4

EPOCH          = 2025-12-19T22:19:17.083776
MEAN_MOTION    = 14.16294836
ECCENTRICITY   = .0080283
INCLINATION    = 99.0264
RA_OF_ASC_NODE = 62.8959
ARG_OF_PERICENTER = 20.0408
MEAN_ANOMALY   = 340.3887

EPHEMERIS_TYPE = 0
CLASSIFICATION_TYPE = U
NORAD_CAT_ID   = 89493
ELEMENT_SET_NO = 999
REV_AT_EPOCH   = 46496
BSTAR          = .93777E-3
MEAN_MOTION_DOT = .1873E-4
MEAN_MOTION_DDOT = 0

CCSDS_OMM_VERS = 2.0
CREATION_DATE  = 
ORIGINATOR     = 

OBJECT_NAME    = UNKNOWN
OBJECT_ID      = 
CENTER_NAME    = EARTH
REF_FRAME      = TEME
TIME_SYSTEM    = UTC
MEAN_ELEMENT_THEORY = SGP/SGP4

EPOCH          = 2025-12-11T00:17:36.525984
MEAN_MOTION    = 14.16177706
ECCENTRICITY   = .0081631
INCLINATION    = 99.0254
RA_OF_ASC_NODE = 53.7408
ARG_OF_PERICENTER = 45.8918
MEAN_ANOMALY   = 314.8934

EPHEMERIS_TYPE = 0
CLASSIFICATION_TYPE = U
NORAD_CAT_ID   = 89494
ELEMENT_SET_NO = 999
REV_AT_EPOCH   = 46355
BSTAR          = .18107E-2
MEAN_MOTION_DOT = .3657E-4
MEAN_MOTION_DDOT = 0

