UNKNOWN                 
1 89251U          25356.11401504  .00014902  00000+0  87384-2 0  9999
2 89251  62.4771 351.1815 2831853 101.5608 291.2882  9.25018808374051
UNKNOWN                 
1 89261U          25349.25057911  .00000974  00000+0  30208-3 0  9994
2 89261  98.1538 343.5564 0013456 146.8272 213.3765 14.43119586534170
UNKNOWN                 
1 89304U          25355.59022926  .00019323  00000+0  23076-1 0  9995
2 89304  84.3094 101.6530 2851541 334.1917  23.3828  9.03754236439207
UNKNOWN                 
1 89349U          25355.79307863  .00000484  00000+0  16699-2 0  9994
2 89349  90.2436   7.5526 0028774 241.1062 118.7171 12.96247793479925
UNKNOWN                 
1 89379U          25356.47705925  .00004472  00000+0  57577-2 0  9995
2 89379 100.4815  12.4689 0041624 106.3375 254.2347 13.62788546582102
UNKNOWN                 
1 89395U          25349.89258409 -.00000220  00000+0 -20254-2 0  9992
2 89395 102.3666 317.9549 0222398 119.5893 304.5400 12.01514395525122
UNKNOWN                 
1 89403U          25355.03164111  .00001003  00000+0  33642-2 0  9994
2 89403  90.2448   5.9911 0028786 194.5966 192.0628 12.98758977478908
UNKNOWN                 
1 89484U          25353.78000933  .00020190  00000+0  14854-1 0  9995
2 89484  84.0421 152.7022 2857331  17.4824 350.6866  9.14944919356084
UNKNOWN                 
1 89493U          25353.93005884  .00001873  00000+0  93777-3 0  9992
2 89493  99.0264  62.8959 0080283  20.0408 340.3887 14.16294836464965
UNKNOWN                 
1 89494U          25345.01222831  .00003657  00000+0  18107-2 0  9991
2 89494  99.0254  53.7408 0081631  45.8918 314.8934 14.16177706463551
